ONEWEB-0564             
1 55801U 23029F   26168.05963365  .00000027  00000+0  33594-4 0  9991
2 55801  87.9186 274.4791 0002137  90.4465 269.6913 13.20770664161139
ONEWEB-0638             
1 55802U 23029G   26167.86025918  .00000216  00000+0  54873-3 0  9995
2 55802  87.8955 289.8169 0001750  83.1332 276.9997 13.14504567159358
ONEWEB-0639             
1 55803U 23029H   26168.10773553  .00000045  00000+0  80512-4 0  9999
2 55803  87.9170 304.9917 0001298 128.5224 231.6025 13.19725176158894
ONEWEB-0640             
1 55804U 23029J   26168.09811556  .00000224  00000+0  57088-3 0  9994
2 55804  87.8956 289.7604 0001361  84.1770 275.9515 13.14502434159401
ONEWEB-0641             
1 55805U 23029K   26168.10298995  .00000017  00000+0  10878-4 0  9990
2 55805  87.9177 304.9817 0001792 103.6384 256.4948 13.19724904158901
ONEWEB-0642             
1 55806U 23029L   26168.09825981 -.00000089  00000+0 -25413-3 0  9991
2 55806  87.9170 304.9946 0001594 125.6288 234.4993 13.19723415158895
ONEWEB-0643             
1 55807U 23029M   26168.06798824 -.00000074  00000+0 -23527-3 0  9992
2 55807  87.8954 289.7535 0001905 121.7400 238.3915 13.14503257159374
ONEWEB-0644             
1 55808U 23029N   26167.94188047  .00000069  00000+0  14112-3 0  9991
2 55808  87.9167 305.0271 0001726 109.4052 250.7267 13.19724428158870
ONEWEB-0645             
1 55809U 23029P   26168.11562561  .00000057  00000+0  10922-3 0  9991
2 55809  87.9167 304.9894 0001412 101.1426 258.9865 13.19724132158894
ONEWEB-0646             
1 55810U 23029Q   26168.13301045 -.00000014  00000+0 -66150-4 0  9993
2 55810  87.9168 304.9862 0001757 108.2274 251.9050 13.19725005158881
ONEWEB-0648             
1 55811U 23029R   26167.88402095 -.00000010  00000+0 -60700-4 0  9993
2 55811  87.8968 289.7638 0001100 120.1707 239.9532 13.14500761159355
ONEWEB-0649             
1 55812U 23029S   26167.93082295 -.00000060  00000+0 -18256-3 0  9999
2 55812  87.9168 305.0240 0001611 101.9047 258.2267 13.19724825158892
ONEWEB-0650             
1 55813U 23029T   26168.07770602  .00000123  00000+0  27563-3 0  9991
2 55813  87.9168 304.9970 0001550 114.3988 245.7307 13.19725469158885
ONEWEB-0652             
1 55814U 23029U   26167.86498563  .00000235  00000+0  59984-3 0  9997
2 55814  87.8962 289.7749 0002034  98.8060 261.3301 13.14504768159326
ONEWEB-0653             
1 55815U 23029V   26168.07749134  .00000064  00000+0  13728-3 0  9991
2 55815  87.8962 289.7304 0001890  97.9849 262.1495 13.14503207159384
ONEWEB-0654             
1 55816U 23029W   26168.07273352 -.00000078  00000+0 -24522-3 0  9997
2 55816  87.8963 289.7277 0002127  92.2858 267.8515 13.14503914159400
